NORAD_CAT_ID,OBJECT_NAME,OBJECT_TYPE,EPOCH,MEAN_MOTION,ECCENTRICITY,INCLINATION,RA_OF_ASC_NODE,ARG_OF_PERICENTER,MEAN_ANOMALY,BSTAR,MEAN_MOTION_DOT,MEAN_MOTION_DDOT,TLE_LINE0,TLE_LINE1,TLE_LINE2,SEMIMAJOR_AXIS,PERIOD,APOGEE,PERIGEE,DECAYED
50817.0,STARLINK-3341,PAYLOAD,2023-06-16 11:16:03,15.08841818,0.0001021,53.2182,325.8142,84.6343,275.4766,0.00010413,1.37e-05,0.0,0 STARLINK-3341,1 50817U 22001Q   23167.46948479  .00001370  00000-0  10413-3 0  9999,2 50817  53.2182 325.8142 0001021  84.6343 275.4766 15.08841818 81113,6917.875,95.437,540.446,539.034,0.0
50817.0,STARLINK-3341,PAYLOAD,2023-06-16 14:26:49,15.08848698,0.0001267,53.2188,325.2206,99.1277,260.9858,0.00015302,2.149e-05,0.0,0 STARLINK-3341,1 50817U 22001Q   23167.60195889  .00002149  00000-0  15302-3 0  9991,2 50817  53.2188 325.2206 0001267  99.1277 260.9858 15.08848698 81139,6917.854,95.437,540.595,538.842,0.0
50817.0,STARLINK-3341,PAYLOAD,2023-06-16 19:12:58,15.08855795,0.0001069,53.2181,324.3284,85.8851,274.2263,0.00021007,3.058e-05,0.0,0 STARLINK-3341,1 50817U 22001Q   23167.80067195  .00003058  00000-0  21007-3 0  9990,2 50817  53.2181 324.3284 0001069  85.8851 274.2263 15.08855795 79915,6917.832,95.437,540.437,538.958,0.0
50817.0,STARLINK-3341,PAYLOAD,2023-06-16 20:48:21,15.08857062,0.0001032,53.2182,324.0309,86.2097,273.9013,0.00022297,3.264e-05,0.0,0 STARLINK-3341,1 50817U 22001Q   23167.86691098  .00003264  00000-0  22297-3 0  9992,2 50817  53.2182 324.0309 0001032  86.2097 273.9013 15.08857062 81177,6917.828,95.436,540.407,538.979,0.0
50817.0,STARLINK-3341,PAYLOAD,2023-06-17 09:31:28,15.08830234,0.0001973,53.2173,321.6494,82.8658,277.2558,-0.00010374,-1.938e-05,0.0,0 STARLINK-3341,1 50817U 22001Q   23168.39685341 -.00001938  00000-0 -10374-3 0  9996,2 50817  53.2173 321.6494 0001973  82.8658 277.2558 15.08830234 81256,6917.91,95.438,541.14,538.41,0.0
50817.0,STARLINK-3341,PAYLOAD,2023-06-17 11:06:51,15.08830929,0.0001972,53.2176,321.3519,82.3555,277.7661,-0.0001263,-2.297e-05,0.0,0 STARLINK-3341,1 50817U 22001Q   23168.46309340 -.00002297  00000-0 -12630-3 0  9992,2 50817  53.2176 321.3519 0001972  82.3555 277.7661 15.08830929 80018,6917.908,95.438,541.137,538.409,0.0
50817.0,STARLINK-3341,PAYLOAD,2023-06-17 19:03:47,15.08826974,0.0001022,53.2183,319.8691,101.1522,258.9585,-5.8753e-05,-1.222e-05,0.0,0 STARLINK-3341,1 50817U 22001Q   23168.79430327 -.00001222  00000-0 -58753-4 0  9992,2 50817  53.2183 319.8691 0001022 101.1522 258.9585 15.08826974 80065,6917.92,95.438,540.492,539.078,0.0
50817.0,STARLINK-3341,PAYLOAD,2023-06-18 09:22:15,15.08838599,8.04e-05,53.2185,317.1926,97.2913,262.817,9.9724e-05,1.3e-05,0.0,0 STARLINK-3341,1 50817U 22001Q   23169.39045290  .00001300  00000-0  99724-4 0  9998,2 50817  53.2185 317.1926 0000804  97.2913 262.8170 15.08838599 81404,6917.885,95.438,540.306,539.193,0.0
50817.0,STARLINK-3341,PAYLOAD,2023-06-18 18:54:33,15.08849287,9.84e-05,53.2182,315.4084,103.6829,256.4272,0.00015771,2.224e-05,0.0,0 STARLINK-3341,1 50817U 22001Q   23169.78788811  .00002224  00000-0  15771-3 0  9999,2 50817  53.2182 315.4084 0000984 103.6829 256.4272 15.08849287 80210,6917.852,95.437,540.398,539.036,0.0
50817.0,STARLINK-3341,PAYLOAD,2023-06-19 10:48:25,15.08837084,9.55e-05,53.2183,312.4354,88.3999,271.7103,0.00033508,5.049e-05,0.0,0 STARLINK-3341,1 50817U 22001Q   23170.45029806  .00005049  00000-0  33508-3 0  9993,2 50817  53.2183 312.4354 0000955  88.3999 271.7103 15.08837084 81567,6917.889,95.438,540.415,539.094,0.0
50817.0,STARLINK-3341,PAYLOAD,2023-06-19 15:34:35,15.08841849,8.85e-05,53.2179,311.5426,93.3883,266.721,0.00037754,5.726e-05,0.0,0 STARLINK-3341,1 50817U 22001Q   23170.64901638  .00005726  00000-0  37754-3 0  9995,2 50817  53.2179 311.5426 0000885  93.3883 266.7210 15.08841849 80344,6917.875,95.437,540.352,539.128,0.0
50817.0,STARLINK-3341,PAYLOAD,2023-06-20 02:42:16,15.08849553,6.89e-05,53.2172,309.4607,92.3391,267.768,0.00028869,4.311e-05,0.0,0 STARLINK-3341,1 50817U 22001Q   23171.11269180  .00004311  00000-0  28869-3 0  9993,2 50817  53.2172 309.4607 0000689  92.3391 267.7680 15.08849553 80419,6917.851,95.437,540.193,539.24,0.0
50817.0,STARLINK-3341,PAYLOAD,2023-06-20 17:00:44,15.0884754,8.64e-05,53.2177,306.7853,81.081,279.0279,0.00014585,2.035e-05,0.0,0 STARLINK-3341,1 50817U 22001Q   23171.70885134  .00002035  00000-0  14585-3 0  9992,2 50817  53.2177 306.7853 0000864  81.0810 279.0279 15.08847540 81755,6917.857,95.437,540.32,539.125,0.0
50817.0,STARLINK-3341,PAYLOAD,2023-06-21 12:05:22,15.08839474,9.1e-05,53.2178,303.217,84.4462,275.6634,-3.206e-05,-7.98e-06,0.0,0 STARLINK-3341,1 50817U 22001Q   23172.50373360 -.00000798  00000-0 -32060-4 0  9999,2 50817  53.2178 303.2170 0000910  84.4462 275.6634 15.08839474 81879,6917.882,95.438,540.377,539.117,0.0
50817.0,STARLINK-3341,PAYLOAD,2023-06-21 13:40:45,15.08837144,8.2e-05,53.2179,302.9205,81.6084,278.5001,0.00011678,1.571e-05,0.0,0 STARLINK-3341,1 50817U 22001Q   23172.56997611  .00001571  00000-0  11678-3 0  9995,2 50817  53.2179 302.9205 0000820  81.6084 278.5001 15.08837144 80639,6917.889,95.438,540.321,539.187,0.0
50817.0,STARLINK-3341,PAYLOAD,2023-06-21 18:26:54,15.08846396,9.09e-05,53.2187,302.0262,95.9647,264.1448,3.6555e-05,2.94e-06,0.0,0 STARLINK-3341,1 50817U 22001Q   23172.76869031  .00000294  00000-0  36555-4 0  9994,2 50817  53.2187 302.0262 0000909  95.9647 264.1448 15.08846396 80661,6917.861,95.437,540.355,539.097,0.0
50817.0,STARLINK-3341,PAYLOAD,2023-06-22 08:45:23,15.08835251,6.52e-05,53.2183,299.3492,90.1786,269.9281,-2.6385e-05,-7.07e-06,0.0,0 STARLINK-3341,1 50817U 22001Q   23173.36485882 -.00000707  00000-0 -26385-4 0  9990,2 50817  53.2183 299.3492 0000652  90.1786 269.9281 15.08835251 82002,6917.895,95.438,540.211,539.309,0.0
50817.0,STARLINK-3341,PAYLOAD,2023-06-22 18:17:42,15.08840631,8.83e-05,53.2173,297.5657,100.608,259.5012,8.3479e-05,1.041e-05,0.0,0 STARLINK-3341,1 50817U 22001Q   23173.76229273  .00001041  00000-0  83479-4 0  9991,2 50817  53.2173 297.5657 0000883 100.6080 259.5012 15.08840631 82065,6917.878,95.438,540.354,539.133,0.0
50817.0,STARLINK-3341,PAYLOAD,2023-06-23 18:08:28,15.08855126,7.62e-05,53.2168,293.1065,89.3073,270.8007,0.0002095,3.049e-05,0.0,0 STARLINK-3341,1 50817U 22001Q   23174.75588538  .00003049  00000-0  20950-3 0  9997,2 50817  53.2168 293.1065 0000762  89.3073 270.8007 15.08855126 82217,6917.834,95.437,540.226,539.172,0.0
50817.0,STARLINK-3341,PAYLOAD,2023-06-24 00:30:01,15.08848091,7.45e-05,53.217,291.9165,88.5111,271.5966,8.2555e-05,1.027e-05,0.0,0 STARLINK-3341,1 50817U 22001Q   23175.02084715  .00001027  00000-0  82555-4 0  9990,2 50817  53.2170 291.9165 0000745  88.5111 271.5966 15.08848091 82251,6917.856,95.437,540.236,539.205,0.0
50817.0,STARLINK-3341,PAYLOAD,2023-06-24 08:26:57,15.08842794,0.0001639,53.2173,290.4302,88.523,271.595,9.8697e-05,1.283e-05,0.0,0 STARLINK-3341,1 50817U 22001Q   23175.35205469  .00001283  00000-0  98697-4 0  9995,2 50817  53.2173 290.4302 0001639  88.5230 271.5950 15.08842794 82309,6917.872,95.437,540.871,538.603,0.0
50817.0,STARLINK-3341,PAYLOAD,2023-06-25 06:42:21,15.08839008,8.79e-05,53.2167,286.2676,92.5206,267.5887,6.1234e-05,6.87e-06,0.0,0 STARLINK-3341,1 50817U 22001Q   23176.27941562  .00000687  00000-0  61234-4 0  9992,2 50817  53.2167 286.2676 0000879  92.5206 267.5887 15.08839008 82445,6917.883,95.438,540.357,539.14,0.0
50817.0,STARLINK-3341,PAYLOAD,2023-06-26 08:08:32,15.08836079,0.0001486,53.2179,281.5116,78.5747,281.5412,0.0001188,1.603e-05,0.0,0 STARLINK-3341,1 50817U 22001Q   23177.33926042  .00001603  00000-0  11880-3 0  9996,2 50817  53.2179 281.5116 0001486  78.5747 281.5412 15.08836079 82607,6917.892,95.438,540.785,538.729,0.0
50817.0,STARLINK-3341,PAYLOAD,2023-06-26 16:05:28,15.08832303,0.000102,53.2172,280.0228,74.8683,285.2422,2.7071e-05,1.43e-06,0.0,0 STARLINK-3341,1 50817U 22001Q   23177.67046422  .00000143  00000-0  27071-4 0  9996,2 50817  53.2172 280.0228 0001020  74.8683 285.2422 15.08832303 82653,6917.904,95.438,540.475,539.063,0.0
50817.0,STARLINK-3341,PAYLOAD,2023-06-27 12:45:28,15.08846298,8.66e-05,53.2165,276.1589,55.549,304.5584,0.00026815,3.983e-05,0.0,0 STARLINK-3341,1 50817U 22001Q   23178.53158103  .00003983  00000-0  26815-3 0  9991,2 50817  53.2165 276.1589 0000866  55.5490 304.5584 15.08846298 82786,6917.861,95.437,540.325,539.127,0.0
50817.0,STARLINK-3341,PAYLOAD,2023-06-28 17:22:24,15.08850602,0.000102,53.2169,270.8048,74.6612,285.4493,0.00033003,4.97e-05,0.0,0 STARLINK-3341,1 50817U 22001Q   23179.72390033  .00004970  00000-0  33003-3 0  9997,2 50817  53.2169 270.8048 0001020  74.6612 285.4493 15.08850602 82962,6917.848,95.437,540.419,539.007,0.0
50817.0,STARLINK-3341,PAYLOAD,2023-06-29 10:51:39,15.08842734,9.55e-05,53.2172,267.5349,72.371,287.7387,6.3619e-05,7.25e-06,0.0,0 STARLINK-3341,1 50817U 22001Q   23180.45254295  .00000725  00000-0  63619-4 0  9999,2 50817  53.2172 267.5349 0000955  72.3710 287.7387 15.08842734 83070,6917.872,95.437,540.398,539.076,0.0
50817.0,STARLINK-3341,PAYLOAD,2023-06-30 12:17:49,15.08849866,8.06e-05,53.2165,262.7758,86.907,273.2014,0.00015266,2.143e-05,0.0,0 STARLINK-3341,1 50817U 22001Q   23181.51237676  .00002143  00000-0  15266-3 0  9991,2 50817  53.2165 262.7758 0000806  86.9070 273.2014 15.08849866 83236,6917.85,95.437,540.273,539.158,0.0
50817.0,STARLINK-3341,PAYLOAD,2023-06-30 21:50:08,15.08841165,8.96e-05,53.2168,260.9913,75.9758,284.1334,9.1909e-06,-1.41e-06,0.0,0 STARLINK-3341,1 50817U 22001Q   23181.90982043 -.00000141  00000-0  91909-5 0  9996,2 50817  53.2168 260.9913 0000896  75.9758 284.1334 15.08841165 83298,6917.877,95.437,540.362,539.122,0.0
50817.0,STARLINK-3341,PAYLOAD,2023-07-01 08:57:50,15.08832941,0.0001077,53.2171,258.9105,100.4837,259.6276,-1.8368e-05,-5.8e-06,0.0,0 STARLINK-3341,1 50817U 22001Q   23182.37350603 -.00000580  00000-0 -18368-4 0  9994,2 50817  53.2171 258.9105 0001077 100.4837 259.6276 15.08832941 83368,6917.902,95.438,540.512,539.022,0.0
